GLOBALSTAR M063 [+]     
1 26081U 00008A   23265.91014262 -.00000061  00000+0  31434-3 0  9993
2 26081  51.9984 339.3595 0004776 176.2403 355.6540 11.86144517 82421
GLOBALSTAR M062 [-]     
1 26082U 00008B   23266.01129690 -.00000009  00000+0  64010-3 0  9996
2 26082  51.9839 157.6833 0006260 195.7664 177.7417 12.43415288 80358
GLOBALSTAR M060 [-]     
1 26083U 00008C   23265.68182301 -.00000202  00000+0 -11029-2 0  9994
2 26083  52.0045  29.0365 0002590 279.9199 186.8425 12.17613863 75198
GLOBALSTAR M064 [-]     
1 26084U 00008D   23265.78355601 -.00000093  00000+0 -14644-3 0  9996
2 26084  52.0020  85.9877 0000700 304.5048  55.5719 11.88509699 91789
GLOBALSTAR M065 [+]     
1 31571U 07020A   23266.00173020 -.00000097  00000+0  35658-4 0  9995
2 31571  51.9922 353.3844 0009884 350.1118  60.0087 12.61952138753762
GLOBALSTAR M069 [+]     
1 31573U 07020C   23266.30476737 -.00000059  00000+0  24872-3 0  9994
2 31573  51.9959 308.6427 0000497 158.7256 280.5072 12.62281256754558
GLOBALSTAR M072 [+]     
1 31574U 07020D   23266.16247578 -.00000096  00000+0  41721-4 0  9992
2 31574  52.0098  44.7683 0001092  89.4276  81.6726 12.62265791753035
GLOBALSTAR M071 [P]     
1 31576U 07020F   23266.07870318 -.00000058  00000+0  25803-3 0  9998
2 31576  52.0080 314.2879 0000985 159.0787 211.3269 12.62268585754513
